ONEWEB-0558             
1 56059U 23043P   24304.39317063  .00000028  00000+0  37171-4 0  9994
2 56059  87.9345   2.4552 0002089  87.5302 272.6071 13.21824064 79669
ONEWEB-0559             
1 56060U 23043Q   24304.60922293  .00000088  00000+0  18051-3 0  9998
2 56060  87.9344   2.4084 0002363  96.8978 263.2425 13.21825057 80616
ONEWEB-0566             
1 56061U 23043R   24304.45152205  .00000113  00000+0  24307-3 0  9990
2 56061  87.9345   2.4396 0002254  84.7110 275.4281 13.21826100 79665
ONEWEB-0568             
1 56062U 23043S   24304.41073254  .00000059  00000+0  12133-3 0  9996
2 56062  87.9121 347.2485 0001582  97.7451 262.3859 13.16593980 80717
ONEWEB-0574             
1 56063U 23043T   24305.12646860 -.00000063  00000+0 -18379-3 0  9990
2 56063  87.9341   2.2979 0001681  96.0442 264.0883 13.21824069 80706
ONEWEB-0575             
1 56064U 23043U   24304.40440257  .00000144  00000+0  34334-3 0  9990
2 56064  87.9122 347.2603 0001826 113.7564 246.3759 13.16594103 80705
ONEWEB-0576             
1 56065U 23043V   24305.06935349  .00000020  00000+0  19101-4 0  9994
2 56065  87.9120 347.1220 0001628 104.8383 255.2929 13.16592583 81695
ONEWEB-0577             
1 56066U 23043W   24304.39173351 -.00000140  00000+0 -39942-3 0  9996
2 56066  87.9120 347.2569 0001991 119.4388 240.6942 13.16593338 80728
